{"type": "FeatureCollection", "features": [ {"type": "Feature", "properties": {"norad_id": 65304, "name": "DRAGON CRS-33", "group": "stations", "lat": 47.13741323062034, "lon": -103.55956215848934, "alt_km": 413.030992739089, "timestamp": "2025-12-14T05:42:17.221096+00:00", "meta": {"OBJECT_NAME": "DRAGON CRS-33", "OBJECT_ID": "2025-186A", "EPOCH": "2025-12-13T13:45:03.960000", "MEAN_MOTION": 15.49569091, "ECCENTRICITY": 0.00032302, "INCLINATION": 51.6303, "RA_OF_ASC_NODE": 138.3533, "ARG_OF_PERICENTER": 244.1175, "MEAN_ANOMALY": 115.9481, "EPHEMERIS_TYPE": 0, "CLASSIFICATION_TYPE": "U", "NORAD_CAT_ID": 65304, "ELEMENT_SET_NO": 999, "REV_AT_EPOCH": 11, "BSTAR": 0.00023044054, "MEAN_MOTION_DOT": 0.00012521, "MEAN_MOTION_DDOT": 0}, "tle": {"line1": "1 65304U 25186A   25347.57296250  .00012521  00000+0  23044-3 0  9993", "line2": "2 65304  51.6303 138.3533 0003230 244.1175 115.9481 15.49569091   116"}}, "geometry": {"type": "Point", "coordinates": [-103.55956215848934, 47.13741323062034]}}, {"type": "Feature", "properties": {"norad_id": 65586, "name": "PROGRESS-MS 32", "group": "stations", "lat": 47.13741296665036, "lon": -103.55956129107719, "alt_km": 413.0309927601711, "timestamp": "2025-12-14T05:42:17.221106+00:00", "meta": {"OBJECT_NAME": "PROGRESS-MS 32", "OBJECT_ID": "2025-204A", "EPOCH": "2025-12-13T13:45:03.960000", "MEAN_MOTION": 15.49569091, "ECCENTRICITY": 0.00032302, "INCLINATION": 51.6303, "RA_OF_ASC_NODE": 138.3533, "ARG_OF_PERICENTER": 244.1175, "MEAN_ANOMALY": 115.9481, "EPHEMERIS_TYPE": 0, "CLASSIFICATION_TYPE": "U", "NORAD_CAT_ID": 65586, "ELEMENT_SET_NO": 999, "REV_AT_EPOCH": 27, "BSTAR": 0.00023044054, "MEAN_MOTION_DOT": 0.00012521, "MEAN_MOTION_DDOT": 0}, "tle": {"line1": "1 65586U 25204A   25347.57296250  .00012521  00000+0  23044-3 0  9996", "line2": "2 65586  51.6303 138.3533 0003230 244.1175 115.9481 15.49569091   275"}}, "geometry": {"type": "Point", "coordinates": [-103.55956129107719, 47.13741296665036]}}, {"type": "Feature", "properties": {"norad_id": 65616, "name": "CYGNUS NG-23", "group": "stations", "lat": 47.13741270268035, "lon": -103.55956042366505, "alt_km": 413.03099278124955, "timestamp": "2025-12-14T05:42:17.221116+00:00", "meta": {"OBJECT_NAME": "CYGNUS NG-23", "OBJECT_ID": "2025-208A", "EPOCH": "2025-12-13T13:45:03.960000", "MEAN_MOTION": 15.49569091, "ECCENTRICITY": 0.00032302, "INCLINATION": 51.6303, "RA_OF_ASC_NODE": 138.3533, "ARG_OF_PERICENTER": 244.1175, "MEAN_ANOMALY": 115.9481, "EPHEMERIS_TYPE": 0, "CLASSIFICATION_TYPE": "U", "NORAD_CAT_ID": 65616, "ELEMENT_SET_NO": 999, "REV_AT_EPOCH": 22, "BSTAR": 0.00023044054, "MEAN_MOTION_DOT": 0.00012521, "MEAN_MOTION_DDOT": 0}, "tle": {"line1": "1 65616U 25208A   25347.57296250  .00012521  00000+0  23044-3 0  9994", "line2": "2 65616  51.6303 138.3533 0003230 244.1175 115.9481 15.49569091   224"}}, "geometry": {"type": "Point", "coordinates": [-103.55956042366505, 47.13741270268035]}}, {"type": "Feature", "properties": {"norad_id": 65729, "name": "DRAGONFLY", "group": "stations", "lat": -23.96294899150476, "lon": -31.2873165488712, "alt_km": 353.81212178038913, "timestamp": "2025-12-14T05:42:17.221127+00:00", "meta": {"OBJECT_NAME": "DRAGONFLY", "OBJECT_ID": "1998-067XH", "EPOCH": "2025-12-13T16:36:27.743328", "MEAN_MOTION": 15.72310549, "ECCENTRICITY": 0.00068171, "INCLINATION": 51.6241, "RA_OF_ASC_NODE": 130.8872, "ARG_OF_PERICENTER": 284.278, "MEAN_ANOMALY": 75.7461, "EPHEMERIS_TYPE": 0, "CLASSIFICATION_TYPE": "U", "NORAD_CAT_ID": 65729, "ELEMENT_SET_NO": 999, "REV_AT_EPOCH": 1331, "BSTAR": 0.0013020604, "MEAN_MOTION_DOT": 0.00179632, "MEAN_MOTION_DDOT": 0}, "tle": {"line1": "1 65729U 98067XH  25347.69198777  .00179632  00000+0  13021-2 0  9990", "line2": "2 65729  51.6241 130.8872 0006817 284.2780  75.7461 15.72310549 13317"}}, "geometry": {"type": "Point", "coordinates": [-31.2873165488712, -23.96294899150476]}}, {"type": "Feature", "properties": {"norad_id": 65731, "name": "1998-067XK", "group": "stations", "lat": -16.540146547855233, "lon": -36.76039664810632, "alt_km": 370.72131909769814, "timestamp": "2025-12-14T05:42:17.221141+00:00", "meta": {"OBJECT_NAME": "1998-067XK", "OBJECT_ID": "1998-067XK", "EPOCH": "2025-12-13T16:35:48.207552", "MEAN_MOTION": 15.65971562, "ECCENTRICITY": 0.0005022, "INCLINATION": 51.6277, "RA_OF_ASC_NODE": 132.4028, "ARG_OF_PERICENTER": 252.6654, "MEAN_ANOMALY": 107.3793, "EPHEMERIS_TYPE": 0, "CLASSIFICATION_TYPE": "U", "NORAD_CAT_ID": 65731, "ELEMENT_SET_NO": 999, "REV_AT_EPOCH": 1329, "BSTAR": 0.0009945398, "MEAN_MOTION_DOT": 0.00104411, "MEAN_MOTION_DDOT": 0}, "tle": {"line1": "1 65731U 98067XK  25347.69153018  .00104411  00000+0  99454-3 0  9990", "line2": "2 65731  51.6277 132.4028 0005022 252.6654 107.3793 15.65971562 13293"}}, "geometry": {"type": "Point", "coordinates": [-36.76039664810632, -16.540146547855233]}}, {"type": "Feature", "properties": {"norad_id": 65732, "name": "RSP-03", "group": "stations", "lat": -7.477148918000492, "lon": -45.13685535070102, "alt_km": 361.91898571709226, "timestamp": "2025-12-14T05:42:17.221152+00:00", "meta": {"OBJECT_NAME": "RSP-03", "OBJECT_ID": "1998-067XL", "EPOCH": "2025-12-13T16:40:16.814784", "MEAN_MOTION": 15.68925685, "ECCENTRICITY": 0.00057642, "INCLINATION": 51.6251, "RA_OF_ASC_NODE": 131.6633, "ARG_OF_PERICENTER": 257.9098, "MEAN_ANOMALY": 102.1253, "EPHEMERIS_TYPE": 0, "CLASSIFICATION_TYPE": "U", "NORAD_CAT_ID": 65732, "ELEMENT_SET_NO": 999, "REV_AT_EPOCH": 1331, "BSTAR": 0.0011602018, "MEAN_MOTION_DOT": 0.00138092, "MEAN_MOTION_DDOT": 0}, "tle": {"line1": "1 65732U 98067XL  25347.69463906  .00138092  00000+0  11602-2 0  9991", "line2": "2 65732  51.6251 131.6633 0005764 257.9098 102.1253 15.68925685 13317"}}, "geometry": {"type": "Point", "coordinates": [-45.13685535070102, -7.477148918000492]}}, {"type": "Feature", "properties": {"norad_id": 65733, "name": "GHS-01", "group": "stations", "lat": 29.234026639107476, "lon": -78.83482839644762, "alt_km": 343.40298246273323, "timestamp": "2025-12-14T05:42:17.221163+00:00", "meta": {"OBJECT_NAME": "GHS-01", "OBJECT_ID": "1998-067XM", "EPOCH": "2025-12-13T15:24:20.714688", "MEAN_MOTION": 15.75321114, "ECCENTRICITY": 0.00073966, "INCLINATION": 51.6271, "RA_OF_ASC_NODE": 130.5592, "ARG_OF_PERICENTER": 286.1274, "MEAN_ANOMALY": 73.8911, "EPHEMERIS_TYPE": 0, "CLASSIFICATION_TYPE": "U", "NORAD_CAT_ID": 65733, "ELEMENT_SET_NO": 999, "REV_AT_EPOCH": 1332, "BSTAR": 0.0014639187, "MEAN_MOTION_DOT": 0.0023151, "MEAN_MOTION_DDOT": 0}, "tle": {"line1": "1 65733U 98067XM  25347.64190642  .00231510  00000+0  14639-2 0  9993", "line2": "2 65733  51.6271 130.5592 0007396 286.1274  73.8911 15.75321114 13326"}}, "geometry": {"type": "Point", "coordinates": [-78.83482839644762, 29.234026639107476]}}, {"type": "Feature", "properties": {"norad_id": 65941, "name": "YOTSUBA-KULOVER", "group": "stations", "lat": -48.17905895532496, "lon": 70.1246682227724, "alt_km": 392.208889822763, "timestamp": "2025-12-14T05:42:17.221199+00:00", "meta": {"OBJECT_NAME": "YOTSUBA-KULOVER", "OBJECT_ID": "1998-067XN", "EPOCH": "2025-12-12T17:06:14.736384", "MEAN_MOTION": 15.59447843, "ECCENTRICITY": 0.00014047, "INCLINATION": 51.6283, "RA_OF_ASC_NODE": 140.1142, "ARG_OF_PERICENTER": 246.8378, "MEAN_ANOMALY": 113.2466, "EPHEMERIS_TYPE": 0, "CLASSIFICATION_TYPE": "U", "NORAD_CAT_ID": 65941, "ELEMENT_SET_NO": 999, "REV_AT_EPOCH": 985, "BSTAR": 0.0010939393, "MEAN_MOTION_DOT": 0.0008876, "MEAN_MOTION_DDOT": 0}, "tle": {"line1": "1 65941U 98067XN  25346.71267056  .00088760  00000+0  10939-2 0  9991", "line2": "2 65941  51.6283 140.1142 0001404 246.8378 113.2466 15.59447843  9857"}}, "geometry": {"type": "Point", "coordinates": [70.1246682227724, -48.17905895532496]}}, {"type": "Feature", "properties": {"norad_id": 65942, "name": "BOTAN", "group": "stations", "lat": -51.27572626495725, "lon": 50.54012336511036, "alt_km": 381.0722285015245, "timestamp": "2025-12-14T05:42:17.221213+00:00", "meta": {"OBJECT_NAME": "BOTAN", "OBJECT_ID": "1998-067XP", "EPOCH": "2025-12-13T14:43:20.096256", "MEAN_MOTION": 15.63119273, "ECCENTRICITY": 0.00030019, "INCLINATION": 51.6279, "RA_OF_ASC_NODE": 134.8795, "ARG_OF_PERICENTER": 244.7732, "MEAN_ANOMALY": 115.2952, "EPHEMERIS_TYPE": 0, "CLASSIFICATION_TYPE": "U", "NORAD_CAT_ID": 65942, "ELEMENT_SET_NO": 999, "REV_AT_EPOCH": 1000, "BSTAR": 0.0011781639, "MEAN_MOTION_DOT": 0.00110558, "MEAN_MOTION_DDOT": 0}, "tle": {"line1": "1 65942U 98067XP  25347.61342704  .00110558  00000+0  11782-2 0  9994", "line2": "2 65942  51.6279 134.8795 0003001 244.7732 115.2952 15.63119273 10002"}}, "geometry": {"type": "Point", "coordinates": [50.54012336511036, -51.27572626495725]}}, {"type": "Feature", "properties": {"norad_id": 65943, "name": "E-KAGAKU-1", "group": "stations", "lat": -47.9257068548145, "lon": 71.07100613753498, "alt_km": 392.18777626495284, "timestamp": "2025-12-14T05:42:17.221225+00:00", "meta": {"OBJECT_NAME": "E-KAGAKU-1", "OBJECT_ID": "1998-067XQ", "EPOCH": "2025-12-10T06:39:08.237952", "MEAN_MOTION": 15.5900432, "ECCENTRICITY": 0.00052507, "INCLINATION": 51.6298, "RA_OF_ASC_NODE": 152.3458, "ARG_OF_PERICENTER": 191.2269, "MEAN_ANOMALY": 168.8608, "EPHEMERIS_TYPE": 0, "CLASSIFICATION_TYPE": "U", "NORAD_CAT_ID": 65943, "ELEMENT_SET_NO": 999, "REV_AT_EPOCH": 947, "BSTAR": 0.0012588803, "MEAN_MOTION_DOT": 0.00100705, "MEAN_MOTION_DDOT": 0}, "tle": {"line1": "1 65943U 98067XQ  25344.27717868  .00100705  00000+0  12589-2 0  9990", "line2": "2 65943  51.6298 152.3458 0005250 191.2269 168.8608 15.59004320  9476"}}, "geometry": {"type": "Point", "coordinates": [71.07100613753498, -47.9257068548145]}}]}